[{"OBJECT_NAME":"STARLINK-4256","OBJECT_ID":"2022-076J","EPOCH":"2026-03-09T12:02:27.766464","MEAN_MOTION":15.08835666,"ECCENTRICITY":0.00012946,"INCLINATION":53.2167,"RA_OF_ASC_NODE":94.9651,"ARG_OF_PERICENTER":86.0354,"MEAN_ANOMALY":274.0786,"EPHEMERIS_TYPE":0,"CLASSIFICATION_TYPE":"U","NORAD_CAT_ID":52994,"ELEMENT_SET_NO":999,"REV_AT_EPOCH":20281,"BSTAR":4.6169926e-5,"MEAN_MOTION_DOT":4.47e-6,"MEAN_MOTION_DDOT":0},{"OBJECT_NAME":"YUNYAO-1 43","OBJECT_ID":"2025-059A","EPOCH":"2026-03-09T23:54:24.516576","MEAN_MOTION":15.10329109,"ECCENTRICITY":0.00157026,"INCLINATION":97.608,"RA_OF_ASC_NODE":250.9377,"ARG_OF_PERICENTER":132.1084,"MEAN_ANOMALY":228.1483,"EPHEMERIS_TYPE":0,"CLASSIFICATION_TYPE":"U","NORAD_CAT_ID":63344,"ELEMENT_SET_NO":999,"REV_AT_EPOCH":5332,"BSTAR":0.00032498885,"MEAN_MOTION_DOT":5.279e-5,"MEAN_MOTION_DDOT":0}]
